[{"OBJECT_NAME":"STARLINK-3542","OBJECT_ID":"2022-022A","EPOCH":"2026-03-09T04:33:59.245920","MEAN_MOTION":15.0886006,"ECCENTRICITY":0.00012096,"INCLINATION":53.2191,"RA_OF_ASC_NODE":21.3629,"ARG_OF_PERICENTER":96.3422,"MEAN_ANOMALY":263.7708,"EPHEMERIS_TYPE":0,"CLASSIFICATION_TYPE":"U","NORAD_CAT_ID":51852,"ELEMENT_SET_NO":999,"REV_AT_EPOCH":22168,"BSTAR":0.00023272751,"MEAN_MOTION_DOT":3.42e-5,"MEAN_MOTION_DDOT":0},{"OBJECT_NAME":"MINOTAUR 4 R\/B","OBJECT_ID":"2020-046E","EPOCH":"2026-03-09T23:21:28.488960","MEAN_MOTION":15.06543892,"ECCENTRICITY":0.00095926,"INCLINATION":53.9792,"RA_OF_ASC_NODE":306.0413,"ARG_OF_PERICENTER":86.078,"MEAN_ANOMALY":274.1318,"EPHEMERIS_TYPE":0,"CLASSIFICATION_TYPE":"U","NORAD_CAT_ID":45877,"ELEMENT_SET_NO":999,"REV_AT_EPOCH":23396,"BSTAR":0.00016618262,"MEAN_MOTION_DOT":2.204e-5,"MEAN_MOTION_DDOT":0}]
